{"type": "FeatureCollection", "features": [ {"type": "Feature", "properties": {"norad_id": 38755, "name": "SPOT 6", "group": "resource", "lat": 37.674627434804044, "lon": -132.39406514740523, "alt_km": 694.4655126316047, "timestamp": "2025-12-02T06:27:52.677965+00:00", "meta": {"OBJECT_NAME": "SPOT 6", "OBJECT_ID": "2012-047A", "EPOCH": "2025-12-01T19:56:18.295584", "MEAN_MOTION": 14.5858579, "ECCENTRICITY": 0.0001031, "INCLINATION": 98.1586, "RA_OF_ASC_NODE": 40.8153, "ARG_OF_PERICENTER": 99.5916, "MEAN_ANOMALY": 260.54, "EPHEMERIS_TYPE": 0, "CLASSIFICATION_TYPE": "U", "NORAD_CAT_ID": 38755, "ELEMENT_SET_NO": 999, "REV_AT_EPOCH": 70428, "BSTAR": 0.00010595, "MEAN_MOTION_DOT": 4.48e-06, "MEAN_MOTION_DDOT": 0}, "tle": {"line1": "1 38755U 12047A   25335.83076731  .00000448  00000+0  10595-3 0  9993", "line2": "2 38755  98.1586  40.8153 0001031  99.5916 260.5400 14.58585790704282"}}, "geometry": {"type": "Point", "coordinates": [-132.39406514740523, 37.674627434804044]}}, {"type": "Feature", "properties": {"norad_id": 39019, "name": "PLEIADES 1B", "group": "resource", "lat": 41.59902461018858, "lon": 41.74827495988208, "alt_km": 693.9157935501289, "timestamp": "2025-12-02T06:27:52.677975+00:00", "meta": {"OBJECT_NAME": "PLEIADES 1B", "OBJECT_ID": "2012-068A", "EPOCH": "2025-12-01T20:23:36.201984", "MEAN_MOTION": 14.58534998, "ECCENTRICITY": 0.0001267, "INCLINATION": 98.1807, "RA_OF_ASC_NODE": 48.6728, "ARG_OF_PERICENTER": 88.1005, "MEAN_ANOMALY": 272.0339, "EPHEMERIS_TYPE": 0, "CLASSIFICATION_TYPE": "U", "NORAD_CAT_ID": 39019, "ELEMENT_SET_NO": 999, "REV_AT_EPOCH": 69208, "BSTAR": 0.00010673, "MEAN_MOTION_DOT": 4.5e-06, "MEAN_MOTION_DDOT": 0}, "tle": {"line1": "1 39019U 12068A   25335.84972456  .00000450  00000+0  10673-3 0  9990", "line2": "2 39019  98.1807  48.6728 0001267  88.1005 272.0339 14.58534998692087"}}, "geometry": {"type": "Point", "coordinates": [41.74827495988208, 41.59902461018858]}}, {"type": "Feature", "properties": {"norad_id": 39030, "name": "GOKTURK 2", "group": "resource", "lat": -11.936040784180113, "lon": -179.92611060852522, "alt_km": 648.8594445803119, "timestamp": "2025-12-02T06:27:52.677986+00:00", "meta": {"OBJECT_NAME": "GOKTURK 2", "OBJECT_ID": "2012-073A", "EPOCH": "2025-12-01T20:45:07.908768", "MEAN_MOTION": 14.75265691, "ECCENTRICITY": 7.92e-05, "INCLINATION": 97.69, "RA_OF_ASC_NODE": 178.0525, "ARG_OF_PERICENTER": 91.6961, "MEAN_ANOMALY": 268.4339, "EPHEMERIS_TYPE": 0, "CLASSIFICATION_TYPE": "U", "NORAD_CAT_ID": 39030, "ELEMENT_SET_NO": 999, "REV_AT_EPOCH": 69541, "BSTAR": 0.00011313, "MEAN_MOTION_DOT": 7.18e-06, "MEAN_MOTION_DDOT": 0}, "tle": {"line1": "1 39030U 12073A   25335.86467487  .00000718  00000+0  11313-3 0  9993", "line2": "2 39030  97.6900 178.0525 0000792  91.6961 268.4339 14.75265691695412"}}, "geometry": {"type": "Point", "coordinates": [-179.92611060852522, -11.936040784180113]}}, {"type": "Feature", "properties": {"norad_id": 39084, "name": "LANDSAT 8", "group": "resource", "lat": -80.97418501311046, "lon": 159.16442881121918, "alt_km": 710.5927866594338, "timestamp": "2025-12-02T06:27:52.677996+00:00", "meta": {"OBJECT_NAME": "LANDSAT 8", "OBJECT_ID": "2013-008A", "EPOCH": "2025-12-01T19:21:29.092608", "MEAN_MOTION": 14.57122196, "ECCENTRICITY": 0.0001085, "INCLINATION": 98.2086, "RA_OF_ASC_NODE": 44.0407, "ARG_OF_PERICENTER": 88.341, "MEAN_ANOMALY": 271.7913, "EPHEMERIS_TYPE": 0, "CLASSIFICATION_TYPE": "U", "NORAD_CAT_ID": 39084, "ELEMENT_SET_NO": 999, "REV_AT_EPOCH": 66915, "BSTAR": 0.00011205, "MEAN_MOTION_DOT": 4.6e-06, "MEAN_MOTION_DDOT": 0}, "tle": {"line1": "1 39084U 13008A   25335.80658672  .00000460  00000+0  11205-3 0  9997", "line2": "2 39084  98.2086  44.0407 0001085  88.3410 271.7913 14.57122196669151"}}, "geometry": {"type": "Point", "coordinates": [159.16442881121918, -80.97418501311046]}}, {"type": "Feature", "properties": {"norad_id": 39086, "name": "SARAL", "group": "resource", "lat": 81.29752760630947, "lon": 80.93790017135073, "alt_km": 773.6788582667714, "timestamp": "2025-12-02T06:27:52.678007+00:00", "meta": {"OBJECT_NAME": "SARAL", "OBJECT_ID": "2013-009A", "EPOCH": "2025-12-01T18:19:16.254048", "MEAN_MOTION": 14.32750601, "ECCENTRICITY": 0.0002571, "INCLINATION": 98.5507, "RA_OF_ASC_NODE": 159.8368, "ARG_OF_PERICENTER": 129.7807, "MEAN_ANOMALY": 230.3603, "EPHEMERIS_TYPE": 0, "CLASSIFICATION_TYPE": "U", "NORAD_CAT_ID": 39086, "ELEMENT_SET_NO": 999, "REV_AT_EPOCH": 66733, "BSTAR": 7.6624e-05, "MEAN_MOTION_DOT": 1.65e-06, "MEAN_MOTION_DDOT": 0}, "tle": {"line1": "1 39086U 13009A   25335.76338257  .00000165  00000+0  76624-4 0  9998", "line2": "2 39086  98.5507 159.8368 0002571 129.7807 230.3603 14.32750601667332"}}, "geometry": {"type": "Point", "coordinates": [80.93790017135073, 81.29752760630947]}}, {"type": "Feature", "properties": {"norad_id": 39150, "name": "GAOFEN-1", "group": "resource", "lat": 18.856708395197902, "lon": 44.383177827606396, "alt_km": 651.9674078578746, "timestamp": "2025-12-02T06:27:52.678017+00:00", "meta": {"OBJECT_NAME": "GAOFEN-1", "OBJECT_ID": "2013-018A", "EPOCH": "2025-12-01T20:37:10.622208", "MEAN_MOTION": 14.76501386, "ECCENTRICITY": 0.0017537, "INCLINATION": 97.9339, "RA_OF_ASC_NODE": 46.7102, "ARG_OF_PERICENTER": 177.2523, "MEAN_ANOMALY": 182.8786, "EPHEMERIS_TYPE": 0, "CLASSIFICATION_TYPE": "U", "NORAD_CAT_ID": 39150, "ELEMENT_SET_NO": 999, "REV_AT_EPOCH": 67912, "BSTAR": 0.00013742, "MEAN_MOTION_DOT": 9.08e-06, "MEAN_MOTION_DDOT": 0}, "tle": {"line1": "1 39150U 13018A   25335.85915072  .00000908  00000+0  13742-3 0  9992", "line2": "2 39150  97.9339  46.7102 0017537 177.2523 182.8786 14.76501386679126"}}, "geometry": {"type": "Point", "coordinates": [44.383177827606396, 18.856708395197902]}}, {"type": "Feature", "properties": {"norad_id": 39160, "name": "VNREDSAT 1", "group": "resource", "lat": 20.966809137457293, "lon": -145.02405548064894, "alt_km": 677.0971481313836, "timestamp": "2025-12-02T06:27:52.678028+00:00", "meta": {"OBJECT_NAME": "VNREDSAT 1", "OBJECT_ID": "2013-021B", "EPOCH": "2025-12-01T19:54:23.907168", "MEAN_MOTION": 14.64894957, "ECCENTRICITY": 0.0001386, "INCLINATION": 97.9389, "RA_OF_ASC_NODE": 31.4861, "ARG_OF_PERICENTER": 84.1174, "MEAN_ANOMALY": 276.0187, "EPHEMERIS_TYPE": 0, "CLASSIFICATION_TYPE": "U", "NORAD_CAT_ID": 39160, "ELEMENT_SET_NO": 999, "REV_AT_EPOCH": 67139, "BSTAR": 0.00015723, "MEAN_MOTION_DOT": 7.95e-06, "MEAN_MOTION_DDOT": 0}, "tle": {"line1": "1 39160U 13021B   25335.82944337  .00000795  00000+0  15723-3 0  9995", "line2": "2 39160  97.9389  31.4861 0001386  84.1174 276.0187 14.64894957671396"}}, "geometry": {"type": "Point", "coordinates": [-145.02405548064894, 20.966809137457293]}}, {"type": "Feature", "properties": {"norad_id": 39227, "name": "ARIRANG-5 (KOMPSAT-5)", "group": "resource", "lat": -7.089292594493127, "lon": -20.23094384548396, "alt_km": 557.6675532465752, "timestamp": "2025-12-02T06:27:52.678038+00:00", "meta": {"OBJECT_NAME": "ARIRANG-5 (KOMPSAT-5)", "OBJECT_ID": "2013-042A", "EPOCH": "2025-12-02T02:26:38.031648", "MEAN_MOTION": 15.04495609, "ECCENTRICITY": 0.0004378, "INCLINATION": 97.6164, "RA_OF_ASC_NODE": 160.5575, "ARG_OF_PERICENTER": 84.6851, "MEAN_ANOMALY": 275.4875, "EPHEMERIS_TYPE": 0, "CLASSIFICATION_TYPE": "U", "NORAD_CAT_ID": 39227, "ELEMENT_SET_NO": 999, "REV_AT_EPOCH": 67422, "BSTAR": 0.00015045, "MEAN_MOTION_DOT": 2.045e-05, "MEAN_MOTION_DDOT": 0}, "tle": {"line1": "1 39227U 13042A   25336.10182907  .00002045  00000+0  15045-3 0  9998", "line2": "2 39227  97.6164 160.5575 0004378  84.6851 275.4875 15.04495609674223"}}, "geometry": {"type": "Point", "coordinates": [-20.23094384548396, -7.089292594493127]}}, {"type": "Feature", "properties": {"norad_id": 39418, "name": "SKYSAT-A", "group": "resource", "lat": -63.58148571248732, "lon": 41.989747026250306, "alt_km": 525.6022181163225, "timestamp": "2025-12-02T06:27:52.678048+00:00", "meta": {"OBJECT_NAME": "SKYSAT-A", "OBJECT_ID": "2013-066C", "EPOCH": "2025-12-01T14:51:38.287296", "MEAN_MOTION": 15.11472349, "ECCENTRICITY": 0.00205154, "INCLINATION": 97.4132, "RA_OF_ASC_NODE": 26.1659, "ARG_OF_PERICENTER": 277.642, "MEAN_ANOMALY": 82.248, "EPHEMERIS_TYPE": 0, "CLASSIFICATION_TYPE": "U", "NORAD_CAT_ID": 39418, "ELEMENT_SET_NO": 999, "REV_AT_EPOCH": 65862, "BSTAR": 0.00025449679, "MEAN_MOTION_DOT": 4.263e-05, "MEAN_MOTION_DDOT": 0}, "tle": {"line1": "1 39418U 13066C   25335.61919314  .00004263  00000+0  25450-3 0  9996", "line2": "2 39418  97.4132  26.1659 0020515 277.6420  82.2480 15.11472349658621"}}, "geometry": {"type": "Point", "coordinates": [41.989747026250306, -63.58148571248732]}}, {"type": "Feature", "properties": {"norad_id": 39419, "name": "DUBAISAT-2", "group": "resource", "lat": -20.25022147510724, "lon": 144.23684818957165, "alt_km": 554.5870838338114, "timestamp": "2025-12-02T06:27:52.678059+00:00", "meta": {"OBJECT_NAME": "DUBAISAT-2", "OBJECT_ID": "2013-066D", "EPOCH": "2025-12-01T21:37:02.704800", "MEAN_MOTION": 15.0819069, "ECCENTRICITY": 0.0011683, "INCLINATION": 97.4446, "RA_OF_ASC_NODE": 326.6447, "ARG_OF_PERICENTER": 1.3785, "MEAN_ANOMALY": 358.7474, "EPHEMERIS_TYPE": 0, "CLASSIFICATION_TYPE": "U", "NORAD_CAT_ID": 39419, "ELEMENT_SET_NO": 999, "REV_AT_EPOCH": 65663, "BSTAR": 0.00034614, "MEAN_MOTION_DOT": 5.3e-05, "MEAN_MOTION_DDOT": 0}, "tle": {"line1": "1 39419U 13066D   25335.90072575  .00005300  00000+0  34614-3 0  9993", "line2": "2 39419  97.4446 326.6447 0011683   1.3785 358.7474 15.08190690656630"}}, "geometry": {"type": "Point", "coordinates": [144.23684818957165, -20.25022147510724]}}]}